CCSDS_OMM_VERS = 2.0
CREATION_DATE  = 
ORIGINATOR     = 

OBJECT_NAME    = STARLINK-36195
OBJECT_ID      = 2025-299Y
CENTER_NAME    = EARTH
REF_FRAME      = TEME
TIME_SYSTEM    = UTC
MEAN_ELEMENT_THEORY = SGP/SGP4

EPOCH          = 2025-12-30T14:00:01.999872
MEAN_MOTION    = 15.62196917
ECCENTRICITY   = .00015529
INCLINATION    = 42.9991
RA_OF_ASC_NODE = 207.6434
ARG_OF_PERICENTER = 250.7096
MEAN_ANOMALY   = 2.5017

EPHEMERIS_TYPE = 0
CLASSIFICATION_TYPE = U
NORAD_CAT_ID   = 67124
ELEMENT_SET_NO = 999
REV_AT_EPOCH   = 367
BSTAR          = -.2418839E-1
MEAN_MOTION_DOT = -.1931259E-1
MEAN_MOTION_DDOT = 0

CCSDS_OMM_VERS = 2.0
CREATION_DATE  = 
ORIGINATOR     = 

OBJECT_NAME    = STARLINK-36219
OBJECT_ID      = 2025-299Z
CENTER_NAME    = EARTH
REF_FRAME      = TEME
TIME_SYSTEM    = UTC
MEAN_ELEMENT_THEORY = SGP/SGP4

EPOCH          = 2025-12-30T14:00:01.999872
MEAN_MOTION    = 15.62210107
ECCENTRICITY   = .00015358
INCLINATION    = 42.9990
RA_OF_ASC_NODE = 207.6392
ARG_OF_PERICENTER = 253.8618
MEAN_ANOMALY   = 1.1450

EPHEMERIS_TYPE = 0
CLASSIFICATION_TYPE = U
NORAD_CAT_ID   = 67125
ELEMENT_SET_NO = 999
REV_AT_EPOCH   = 367
BSTAR          = -.24190717E-1
MEAN_MOTION_DOT = -.1932296E-1
MEAN_MOTION_DDOT = 0

CCSDS_OMM_VERS = 2.0
CREATION_DATE  = 
ORIGINATOR     = 

OBJECT_NAME    = STARLINK-36223
OBJECT_ID      = 2025-299AA
CENTER_NAME    = EARTH
REF_FRAME      = TEME
TIME_SYSTEM    = UTC
MEAN_ELEMENT_THEORY = SGP/SGP4

EPOCH          = 2025-12-30T14:00:01.999872
MEAN_MOTION    = 15.62210187
ECCENTRICITY   = .00015532
INCLINATION    = 42.9992
RA_OF_ASC_NODE = 207.6340
ARG_OF_PERICENTER = 252.6247
MEAN_ANOMALY   = 4.2798

EPHEMERIS_TYPE = 0
CLASSIFICATION_TYPE = U
NORAD_CAT_ID   = 67126
ELEMENT_SET_NO = 999
REV_AT_EPOCH   = 367
BSTAR          = -.2415836E-1
MEAN_MOTION_DOT = -.1930035E-1
MEAN_MOTION_DDOT = 0

CCSDS_OMM_VERS = 2.0
CREATION_DATE  = 
ORIGINATOR     = 

OBJECT_NAME    = STARLINK-36164
OBJECT_ID      = 2025-299AB
CENTER_NAME    = EARTH
REF_FRAME      = TEME
TIME_SYSTEM    = UTC
MEAN_ELEMENT_THEORY = SGP/SGP4

EPOCH          = 2025-12-30T14:00:01.999872
MEAN_MOTION    = 15.62217955
ECCENTRICITY   = .00015168
INCLINATION    = 42.9990
RA_OF_ASC_NODE = 207.6295
ARG_OF_PERICENTER = 251.8999
MEAN_ANOMALY   = 6.8436

EPHEMERIS_TYPE = 0
CLASSIFICATION_TYPE = U
NORAD_CAT_ID   = 67127
ELEMENT_SET_NO = 999
REV_AT_EPOCH   = 367
BSTAR          = -.24131991E-1
MEAN_MOTION_DOT = -.1928672E-1
MEAN_MOTION_DDOT = 0

CCSDS_OMM_VERS = 2.0
CREATION_DATE  = 
ORIGINATOR     = 

OBJECT_NAME    = STARLINK-35685
OBJECT_ID      = 2025-299AC
CENTER_NAME    = EARTH
REF_FRAME      = TEME
TIME_SYSTEM    = UTC
MEAN_ELEMENT_THEORY = SGP/SGP4

EPOCH          = 2025-12-30T14:00:01.999872
MEAN_MOTION    = 15.62188541
ECCENTRICITY   = .00015754
INCLINATION    = 42.9989
RA_OF_ASC_NODE = 207.6185
ARG_OF_PERICENTER = 251.9254
MEAN_ANOMALY   = 10.9482

EPHEMERIS_TYPE = 0
CLASSIFICATION_TYPE = U
NORAD_CAT_ID   = 67128
ELEMENT_SET_NO = 999
REV_AT_EPOCH   = 367
BSTAR          = -.24167655E-1
MEAN_MOTION_DOT = -.1929254E-1
MEAN_MOTION_DDOT = 0

CCSDS_OMM_VERS = 2.0
CREATION_DATE  = 
ORIGINATOR     = 

OBJECT_NAME    = STARLINK-36214
OBJECT_ID      = 2025-299AD
CENTER_NAME    = EARTH
REF_FRAME      = TEME
TIME_SYSTEM    = UTC
MEAN_ELEMENT_THEORY = SGP/SGP4

EPOCH          = 2025-12-30T14:00:01.999872
MEAN_MOTION    = 15.62219102
ECCENTRICITY   = .00016009
INCLINATION    = 42.9989
RA_OF_ASC_NODE = 207.6248
ARG_OF_PERICENTER = 254.6823
MEAN_ANOMALY   = 5.9898

EPHEMERIS_TYPE = 0
CLASSIFICATION_TYPE = U
NORAD_CAT_ID   = 67129
ELEMENT_SET_NO = 999
REV_AT_EPOCH   = 367
BSTAR          = -.24180017E-1
MEAN_MOTION_DOT = -.1932194E-1
MEAN_MOTION_DDOT = 0

CCSDS_OMM_VERS = 2.0
CREATION_DATE  = 
ORIGINATOR     = 

OBJECT_NAME    = STARLINK-36194
OBJECT_ID      = 2025-299AE
CENTER_NAME    = EARTH
REF_FRAME      = TEME
TIME_SYSTEM    = UTC
MEAN_ELEMENT_THEORY = SGP/SGP4

EPOCH          = 2025-12-30T14:00:01.999872
MEAN_MOTION    = 15.62088139
ECCENTRICITY   = .00015899
INCLINATION    = 42.9989
RA_OF_ASC_NODE = 207.6136
ARG_OF_PERICENTER = 251.5758
MEAN_ANOMALY   = 14.1931

EPHEMERIS_TYPE = 0
CLASSIFICATION_TYPE = U
NORAD_CAT_ID   = 67130
ELEMENT_SET_NO = 999
REV_AT_EPOCH   = 367
BSTAR          = -.24239342E-1
MEAN_MOTION_DOT = -.1927574E-1
MEAN_MOTION_DDOT = 0

CCSDS_OMM_VERS = 2.0
CREATION_DATE  = 
ORIGINATOR     = 

OBJECT_NAME    = ZIYUAN 3-04 (ZY 3-04)
OBJECT_ID      = 2025-300A
CENTER_NAME    = EARTH
REF_FRAME      = TEME
TIME_SYSTEM    = UTC
MEAN_ELEMENT_THEORY = SGP/SGP4

EPOCH          = 2025-12-27T02:15:00.635904
MEAN_MOTION    = 15.21251311
ECCENTRICITY   = .00031253
INCLINATION    = 97.4921
RA_OF_ASC_NODE = 75.1314
ARG_OF_PERICENTER = 152.4137
MEAN_ANOMALY   = 207.7265

EPHEMERIS_TYPE = 0
CLASSIFICATION_TYPE = U
NORAD_CAT_ID   = 67131
ELEMENT_SET_NO = 999
REV_AT_EPOCH   = 167
BSTAR          = .94249032E-4
MEAN_MOTION_DOT = .2035E-4
MEAN_MOTION_DDOT = 0

CCSDS_OMM_VERS = 2.0
CREATION_DATE  = 
ORIGINATOR     = 

OBJECT_NAME    = CZ-4B R/B
OBJECT_ID      = 2025-300B
CENTER_NAME    = EARTH
REF_FRAME      = TEME
TIME_SYSTEM    = UTC
MEAN_ELEMENT_THEORY = SGP/SGP4

EPOCH          = 2025-12-28T04:50:01.164768
MEAN_MOTION    = 15.66474008
ECCENTRICITY   = .01658831
INCLINATION    = 97.5543
RA_OF_ASC_NODE = 77.1821
ARG_OF_PERICENTER = 333.4129
MEAN_ANOMALY   = 25.8691

EPHEMERIS_TYPE = 0
CLASSIFICATION_TYPE = U
NORAD_CAT_ID   = 67132
ELEMENT_SET_NO = 999
REV_AT_EPOCH   = 189
BSTAR          = .23618416E-3
MEAN_MOTION_DOT = .5235E-3
MEAN_MOTION_DDOT = .3049283E-5

CCSDS_OMM_VERS = 2.0
CREATION_DATE  = 
ORIGINATOR     = 

OBJECT_NAME    = KUIPER-00144
OBJECT_ID      = 2025-301A
CENTER_NAME    = EARTH
REF_FRAME      = TEME
TIME_SYSTEM    = UTC
MEAN_ELEMENT_THEORY = SGP/SGP4

EPOCH          = 2025-12-30T12:56:30.669504
MEAN_MOTION    = 15.35660195
ECCENTRICITY   = .00063646
INCLINATION    = 51.8710
RA_OF_ASC_NODE = 39.3003
ARG_OF_PERICENTER = 131.4547
MEAN_ANOMALY   = 228.6987

EPHEMERIS_TYPE = 0
CLASSIFICATION_TYPE = U
NORAD_CAT_ID   = 67133
ELEMENT_SET_NO = 999
REV_AT_EPOCH   = 310
BSTAR          = .40770755E-3
MEAN_MOTION_DOT = .14003E-3
MEAN_MOTION_DDOT = 0

CCSDS_OMM_VERS = 2.0
CREATION_DATE  = 
ORIGINATOR     = 

OBJECT_NAME    = KUIPER-00164
OBJECT_ID      = 2025-301B
CENTER_NAME    = EARTH
REF_FRAME      = TEME
TIME_SYSTEM    = UTC
MEAN_ELEMENT_THEORY = SGP/SGP4

EPOCH          = 2025-12-30T12:47:02.105664
MEAN_MOTION    = 15.36328086
ECCENTRICITY   = .00032673
INCLINATION    = 51.8722
RA_OF_ASC_NODE = 39.2566
ARG_OF_PERICENTER = 113.2422
MEAN_ANOMALY   = 246.8909

EPHEMERIS_TYPE = 0
CLASSIFICATION_TYPE = U
NORAD_CAT_ID   = 67134
ELEMENT_SET_NO = 999
REV_AT_EPOCH   = 328
BSTAR          = .12217529E-2
MEAN_MOTION_DOT = .43821E-3
MEAN_MOTION_DDOT = 0

CCSDS_OMM_VERS = 2.0
CREATION_DATE  = 
ORIGINATOR     = 

OBJECT_NAME    = KUIPER-00175
OBJECT_ID      = 2025-301C
CENTER_NAME    = EARTH
REF_FRAME      = TEME
TIME_SYSTEM    = UTC
MEAN_ELEMENT_THEORY = SGP/SGP4

EPOCH          = 2025-12-30T14:14:17.119680
MEAN_MOTION    = 15.36772799
ECCENTRICITY   = .00025261
INCLINATION    = 51.8740
RA_OF_ASC_NODE = 38.9077
ARG_OF_PERICENTER = 67.9809
MEAN_ANOMALY   = 292.1445

EPHEMERIS_TYPE = 0
CLASSIFICATION_TYPE = U
NORAD_CAT_ID   = 67135
ELEMENT_SET_NO = 999
REV_AT_EPOCH   = 318
BSTAR          = .67006293E-3
MEAN_MOTION_DOT = .24142E-3
MEAN_MOTION_DDOT = 0

