STARLINK-36195          
1 67124U 25299Y   25364.58335648 -.01931259  00000+0 -24188-1 0  9994
2 67124  42.9991 207.6434 0001552 250.7096   2.5017 15.62196917  3672
STARLINK-36219          
1 67125U 25299Z   25364.58335648 -.01932296  00000+0 -24191-1 0  9991
2 67125  42.9990 207.6392 0001535 253.8618   1.1450 15.62210107  3674
STARLINK-36223          
1 67126U 25299AA  25364.58335648 -.01930035  00000+0 -24158-1 0  9994
2 67126  42.9992 207.6340 0001553 252.6247   4.2798 15.62210187  3672
STARLINK-36164          
1 67127U 25299AB  25364.58335648 -.01928672  00000+0 -24132-1 0  9991
2 67127  42.9990 207.6295 0001516 251.8999   6.8436 15.62217955  3671
STARLINK-35685          
1 67128U 25299AC  25364.58335648 -.01929254  00000+0 -24168-1 0  9998
2 67128  42.9989 207.6185 0001575 251.9254  10.9482 15.62188541  3673
STARLINK-36214          
1 67129U 25299AD  25364.58335648 -.01932194  00000+0 -24180-1 0  9990
2 67129  42.9989 207.6248 0001600 254.6823   5.9898 15.62219102  3678
STARLINK-36194          
1 67130U 25299AE  25364.58335648 -.01927574  00000+0 -24239-1 0  9993
2 67130  42.9989 207.6136 0001589 251.5758  14.1931 15.62088139  3679
ZIYUAN 3-04 (ZY 3-04)   
1 67131U 25300A   25361.09375736  .00002035  00000+0  94249-4 0  9996
2 67131  97.4921  75.1314 0003125 152.4137 207.7265 15.21251311  1672
CZ-4B R/B               
1 67132U 25300B   25362.20140237  .00052350  30493-5  23618-3 0  9998
2 67132  97.5543  77.1821 0165883 333.4129  25.8691 15.66474008  1896
KUIPER-00144            
1 67133U 25301A   25364.53924386  .00014003  00000+0  40771-3 0  9990
2 67133  51.8710  39.3003 0006364 131.4547 228.6987 15.35660195  3103
KUIPER-00164            
1 67134U 25301B   25364.53266326  .00043821  00000+0  12218-2 0  9998
2 67134  51.8722  39.2566 0003267 113.2422 246.8909 15.36328086  3285
KUIPER-00175            
1 67135U 25301C   25364.59325370  .00024142  00000+0  67006-3 0  9991
2 67135  51.8740  38.9077 0002526  67.9809 292.1445 15.36772799  3182
